{
  "type": "FeatureCollection",
  "features": [
    {
      "type": "Feature",
      "properties": {
        "norad_id": 66961,
        "name": "STARLINK-35761",
        "group": "last-30-days",
        "lat": 16.390152256823935,
        "lon": 153.50448481338125,
        "alt_km": 306.0033848014964,
        "timestamp": "2025-12-17T23:38:05.627099+00:00",
        "meta_object_name": "STARLINK-35761",
        "meta_object_id": "2025-288C",
        "meta_epoch": "2025-12-16T14:00:03.000384",
        "meta_mean_motion": 15.91193502,
        "meta_eccentricity": 0.00016481,
        "meta_inclination": 43.0009,
        "meta_ra_of_asc_node": 143.7913,
        "meta_arg_of_pericenter": 269.4345,
        "meta_mean_anomaly": 5.9922,
        "meta_ephemeris_type": 0,
        "meta_classification_type": "U",
        "meta_norad_cat_id": 66961,
        "meta_element_set_no": 999,
        "meta_rev_at_epoch": 245,
        "meta_bstar": -0.0039038489,
        "meta_mean_motion_dot": -0.01286068,
        "meta_mean_motion_ddot": 0.00047494021,
        "tle_line1": "1 66961U 25288C   25350.58336806 -.01286068  47494-3 -39038-2 0  9996",
        "tle_line2": "2 66961  43.0009 143.7913 0001648 269.4345   5.9922 15.91193502  2450"
      },
      "geometry": {
        "type": "Point",
        "coordinates": [
          153.50448481338125,
          16.390152256823935
        ]
      }
    },
    {
      "type": "Feature",
      "properties": {
        "norad_id": 66962,
        "name": "STARLINK-35874",
        "group": "last-30-days",
        "lat": 18.055659976315834,
        "lon": 155.5757084778068,
        "alt_km": 305.94979868685914,
        "timestamp": "2025-12-17T23:38:05.627110+00:00",
        "meta_object_name": "STARLINK-35874",
        "meta_object_id": "2025-288D",
        "meta_epoch": "2025-12-16T14:00:03.000384",
        "meta_mean_motion": 15.91258062,
        "meta_eccentricity": 0.00016798,
        "meta_inclination": 43.0009,
        "meta_ra_of_asc_node": 143.7852,
        "meta_arg_of_pericenter": 265.2732,
        "meta_mean_anomaly": 12.5507,
        "meta_ephemeris_type": 0,
        "meta_classification_type": "U",
        "meta_norad_cat_id": 66962,
        "meta_element_set_no": 999,
        "meta_rev_at_epoch": 245,
        "meta_bstar": -0.0039550127,
        "meta_mean_motion_dot": -0.01307049,
        "meta_mean_motion_ddot": 0.00048952147,
        "tle_line1": "1 66962U 25288D   25350.58336806 -.01307049  48952-3 -39550-2 0  9999",
        "tle_line2": "2 66962  43.0009 143.7852 0001679 265.2732  12.5507 15.91258062  2457"
      },
      "geometry": {
        "type": "Point",
        "coordinates": [
          155.5757084778068,
          18.055659976315834
        ]
      }
    },
    {
      "type": "Feature",
      "properties": {
        "norad_id": 66963,
        "name": "STARLINK-36133",
        "group": "last-30-days",
        "lat": 19.26734822926153,
        "lon": 157.12546223740753,
        "alt_km": 305.8465664404739,
        "timestamp": "2025-12-17T23:38:05.627132+00:00",
        "meta_object_name": "STARLINK-36133",
        "meta_object_id": "2025-288E",
        "meta_epoch": "2025-12-16T14:00:03.000384",
        "meta_mean_motion": 15.913225,
        "meta_eccentricity": 0.0001662,
        "meta_inclination": 43.001,
        "meta_ra_of_asc_node": 143.7809,
        "meta_arg_of_pericenter": 264.2062,
        "meta_mean_anomaly": 15.3668,
        "meta_ephemeris_type": 0,
        "meta_classification_type": "U",
        "meta_norad_cat_id": 66963,
        "meta_element_set_no": 999,
        "meta_rev_at_epoch": 245,
        "meta_bstar": -0.0040224604,
        "meta_mean_motion_dot": -0.01333473,
        "meta_mean_motion_ddot": 0.00050810595,
        "tle_line1": "1 66963U 25288E   25350.58336806 -.01333473  50811-3 -40225-2 0  9998",
        "tle_line2": "2 66963  43.0010 143.7809 0001662 264.2062  15.3668 15.91322500  2457"
      },
      "geometry": {
        "type": "Point",
        "coordinates": [
          157.12546223740753,
          19.26734822926153
        ]
      }
    },
    {
      "type": "Feature",
      "properties": {
        "norad_id": 66964,
        "name": "STARLINK-36104",
        "group": "last-30-days",
        "lat": 20.538011086648158,
        "lon": 158.79399217218187,
        "alt_km": 305.6542809670691,
        "timestamp": "2025-12-17T23:38:05.627146+00:00",
        "meta_object_name": "STARLINK-36104",
        "meta_object_id": "2025-288F",
        "meta_epoch": "2025-12-16T14:00:03.000384",
        "meta_mean_motion": 15.91381929,
        "meta_eccentricity": 0.00016875,
        "meta_inclination": 43.0012,
        "meta_ra_of_asc_node": 143.776,
        "meta_arg_of_pericenter": 264.1667,
        "meta_mean_anomaly": 17.2313,
        "meta_ephemeris_type": 0,
        "meta_classification_type": "U",
        "meta_norad_cat_id": 66964,
        "meta_element_set_no": 999,
        "meta_rev_at_epoch": 245,
        "meta_bstar": -0.0040599566,
        "meta_mean_motion_dot": -0.01349864,
        "meta_mean_motion_ddot": 0.00051989801,
        "tle_line1": "1 66964U 25288F   25350.58336806 -.01349864  51990-3 -40600-2 0  9996",
        "tle_line2": "2 66964  43.0012 143.7760 0001687 264.1667  17.2313 15.91381929  2451"
      },
      "geometry": {
        "type": "Point",
        "coordinates": [
          158.79399217218187,
          20.538011086648158
        ]
      }
    },
    {
      "type": "Feature",
      "properties": {
        "norad_id": 66965,
        "name": "STARLINK-36067",
        "group": "last-30-days",
        "lat": 21.739002969853335,
        "lon": 160.4178009670661,
        "alt_km": 305.3692809482918,
        "timestamp": "2025-12-17T23:38:05.627157+00:00",
        "meta_object_name": "STARLINK-36067",
        "meta_object_id": "2025-288G",
        "meta_epoch": "2025-12-16T14:00:03.000384",
        "meta_mean_motion": 15.91459647,
        "meta_eccentricity": 0.00016181,
        "meta_inclination": 43.0011,
        "meta_ra_of_asc_node": 143.7715,
        "meta_arg_of_pericenter": 269.0061,
        "meta_mean_anomaly": 14.2021,
        "meta_ephemeris_type": 0,
        "meta_classification_type": "U",
        "meta_norad_cat_id": 66965,
        "meta_element_set_no": 999,
        "meta_rev_at_epoch": 245,
        "meta_bstar": -0.0041720134,
        "meta_mean_motion_dot": -0.01392205,
        "meta_mean_motion_ddot": 0.00055057089,
        "tle_line1": "1 66965U 25288G   25350.58336806 -.01392205  55057-3 -41720-2 0  9996",
        "tle_line2": "2 66965  43.0011 143.7715 0001618 269.0061  14.2021 15.91459647  2453"
      },
      "geometry": {
        "type": "Point",
        "coordinates": [
          160.4178009670661,
          21.739002969853335
        ]
      }
    },
    {
      "type": "Feature",
      "properties": {
        "norad_id": 66966,
        "name": "STARLINK-36139",
        "group": "last-30-days",
        "lat": 23.28975746375806,
        "lon": 162.589385967663,
        "alt_km": 305.2849983984461,
        "timestamp": "2025-12-17T23:38:05.627167+00:00",
        "meta_object_name": "STARLINK-36139",
        "meta_object_id": "2025-288H",
        "meta_epoch": "2025-12-16T14:00:03.000384",
        "meta_mean_motion": 15.91510909,
        "meta_eccentricity": 0.00016164,
        "meta_inclination": 43.001,
        "meta_ra_of_asc_node": 143.7657,
        "meta_arg_of_pericenter": 263.363,
        "meta_mean_anomaly": 22.1483,
        "meta_ephemeris_type": 0,
        "meta_classification_type": "U",
        "meta_norad_cat_id": 66966,
        "meta_element_set_no": 999,
        "meta_rev_at_epoch": 245,
        "meta_bstar": -0.0041716004,
        "meta_mean_motion_dot": -0.01395724,
        "meta_mean_motion_ddot": 0.0005533968,
        "tle_line1": "1 66966U 25288H   25350.58336806 -.01395724  55340-3 -41716-2 0  9996",
        "tle_line2": "2 66966  43.0010 143.7657 0001616 263.3630  22.1483 15.91510909  2454"
      },
      "geometry": {
        "type": "Point",
        "coordinates": [
          162.589385967663,
          23.28975746375806
        ]
      }
    },
    {
      "type": "Feature",
      "properties": {
        "norad_id": 66967,
        "name": "STARLINK-36136",
        "group": "last-30-days",
        "lat": 24.46589203388986,
        "lon": 164.2999985192265,
        "alt_km": 305.2126119877039,
        "timestamp": "2025-12-17T23:38:05.627177+00:00",
        "meta_object_name": "STARLINK-36136",
        "meta_object_id": "2025-288J",
        "meta_epoch": "2025-12-16T14:00:03.000384",
        "meta_mean_motion": 15.91570387,
        "meta_eccentricity": 0.00016567,
        "meta_inclination": 43.001,
        "meta_ra_of_asc_node": 143.761,
        "meta_arg_of_pericenter": 261.6104,
        "meta_mean_anomaly": 25.703,
        "meta_ephemeris_type": 0,
        "meta_classification_type": "U",
        "meta_norad_cat_id": 66967,
        "meta_element_set_no": 999,
        "meta_rev_at_epoch": 245,
        "meta_bstar": -0.0042269257,
        "meta_mean_motion_dot": -0.01418343,
        "meta_mean_motion_ddot": 0.0005702704,
        "tle_line1": "1 66967U 25288J   25350.58336806 -.01418343  57027-3 -42269-2 0  9998",
        "tle_line2": "2 66967  43.0010 143.7610 0001656 261.6104  25.7030 15.91570387  2458"
      },
      "geometry": {
        "type": "Point",
        "coordinates": [
          164.2999985192265,
          24.46589203388986
        ]
      }
    }
  ]
}